SKYSAT-A                
1 39418U 13066C   26115.60693707  .00003121  00000+0  18101-3 0  9994
2 39418  97.3867 166.6784 0022904 133.5960 226.7178 15.12661764680533
SKYSAT-B                
1 40072U 14037D   26116.34497447  .00001507  00000+0  17136-3 0  9999
2 40072  98.3799  72.3739 0007029  86.7990 273.4029 14.87886644638255
SKYSAT-C1               
1 41601U 16040C   26116.35425821  .00010599  00000+0  31014-3 0  9994
2 41601  96.9620 150.9042 0002469 164.7336 195.3983 15.35412996549919
SKYSAT-C4               
1 41771U 16058B   26115.96348644  .00018142  00000+0  36125-3 0  9994
2 41771  96.9226 139.9736 0003526  95.8992 264.2661 15.46949293537398
SKYSAT-C5               
1 41772U 16058C   26116.37804044  .00009248  00000+0  28585-3 0  9990
2 41772  97.0529 159.3450 0004936 110.8707 249.3066 15.33709398535807
SKYSAT-C2               
1 41773U 16058D   26116.52132215  .00013610  00000+0  33299-3 0  9998
2 41773  97.0218 140.5960 0002108 196.7809 163.3369 15.40891823537093
SKYSAT-C3               
1 41774U 16058E   26116.35005227  .00024624  00000+0  43436-3 0  9993
2 41774  96.9097 149.2502 0002726 103.3044 256.8513 15.50378239538076
SKYSAT-C11              
1 42987U 17068A   26116.36966742  .00033634  00000+0  49813-3 0  9997
2 42987  97.4284 263.0743 0001482 139.5781 220.5583 15.55203934475187
SKYSAT-C10              
1 42988U 17068B   26116.30894529  .00011942  00000+0  36861-3 0  9992
2 42988  97.4423 252.7111 0001621 110.5109 249.6307 15.33712093474402
SKYSAT-C9               
1 42989U 17068C   26116.35251744  .00015523  00000+0  38704-3 0  9991
2 42989  97.4346 253.2095 0007583 330.1182  29.9630 15.40274257474779
SKYSAT-C8               
1 42990U 17068D   26116.35695995  .00013041  00000+0  37508-3 0  9997
2 42990  97.4441 252.3667 0001186 111.6468 248.4902 15.35924349474356
SKYSAT-C7               
1 42991U 17068E   26116.34861330  .00012768  00000+0  36786-3 0  9997
2 42991  97.4452 253.3445 0004680 295.8372  64.2389 15.35865679474415
SKYSAT-C6               
1 42992U 17068F   26116.35065325  .00011692  00000+0  36304-3 0  9990
2 42992  97.4486 253.4870 0001805   2.3936 357.7315 15.33529283474379
SKYSAT-C12              
1 43797U 18099AR  26116.31749159  .00019414  00000+0  38258-3 0  9999
2 43797  96.9313 141.6945 0003540  16.6336 343.5031 15.47238311413833
SKYSAT-C13              
1 43802U 18099AW  26116.36254812  .00178386  00000+0  66513-3 0  9997
2 43802  96.9283 164.4245 0003046  94.2854 265.8767 15.87529525414703
FLOCK 4Q-16             
1 58271U 23174R   26116.52280127  .00027702  00000+0  54844-3 0  9998
2 58271  97.3827 203.5270 0005235   0.5150 359.6105 15.47036567137583
FLOCK 4Q-11             
1 58273U 23174T   26116.51712382  .00026913  00000+0  52474-3 0  9992
2 58273  97.3865 204.0600 0004866 358.2461   1.8771 15.47487590137599
