[{"OBJECT_NAME":"SKYSAT-A","OBJECT_ID":"2013-066C","EPOCH":"2026-04-25T14:33:59.362848","MEAN_MOTION":15.12661764,"ECCENTRICITY":0.00229043,"INCLINATION":97.3867,"RA_OF_ASC_NODE":166.6784,"ARG_OF_PERICENTER":133.596,"MEAN_ANOMALY":226.7178,"EPHEMERIS_TYPE":0,"CLASSIFICATION_TYPE":"U","NORAD_CAT_ID":39418,"ELEMENT_SET_NO":999,"REV_AT_EPOCH":68053,"BSTAR":0.00018100551,"MEAN_MOTION_DOT":3.121e-5,"MEAN_MOTION_DDOT":0},{"OBJECT_NAME":"SKYSAT-B","OBJECT_ID":"2014-037D","EPOCH":"2026-04-26T08:16:45.794208","MEAN_MOTION":14.87886644,"ECCENTRICITY":0.0007029,"INCLINATION":98.3799,"RA_OF_ASC_NODE":72.3739,"ARG_OF_PERICENTER":86.799,"MEAN_ANOMALY":273.4029,"EPHEMERIS_TYPE":0,"CLASSIFICATION_TYPE":"U","NORAD_CAT_ID":40072,"ELEMENT_SET_NO":999,"REV_AT_EPOCH":63825,"BSTAR":0.00017136,"MEAN_MOTION_DOT":1.507e-5,"MEAN_MOTION_DDOT":0},{"OBJECT_NAME":"SKYSAT-C1","OBJECT_ID":"2016-040C","EPOCH":"2026-04-26T08:30:07.909344","MEAN_MOTION":15.35412996,"ECCENTRICITY":0.0002469,"INCLINATION":96.962,"RA_OF_ASC_NODE":150.9042,"ARG_OF_PERICENTER":164.7336,"MEAN_ANOMALY":195.3983,"EPHEMERIS_TYPE":0,"CLASSIFICATION_TYPE":"U","NORAD_CAT_ID":41601,"ELEMENT_SET_NO":999,"REV_AT_EPOCH":54991,"BSTAR":0.00031014,"MEAN_MOTION_DOT":0.00010599,"MEAN_MOTION_DDOT":0},{"OBJECT_NAME":"SKYSAT-C4","OBJECT_ID":"2016-058B","EPOCH":"2026-04-25T23:07:25.228416","MEAN_MOTION":15.46949293,"ECCENTRICITY":0.00035269,"INCLINATION":96.9226,"RA_OF_ASC_NODE":139.9736,"ARG_OF_PERICENTER":95.8992,"MEAN_ANOMALY":264.2661,"EPHEMERIS_TYPE":0,"CLASSIFICATION_TYPE":"U","NORAD_CAT_ID":41771,"ELEMENT_SET_NO":999,"REV_AT_EPOCH":53739,"BSTAR":0.0003612457,"MEAN_MOTION_DOT":0.00018142,"MEAN_MOTION_DDOT":0},{"OBJECT_NAME":"SKYSAT-C5","OBJECT_ID":"2016-058C","EPOCH":"2026-04-26T09:04:22.694016","MEAN_MOTION":15.33709398,"ECCENTRICITY":0.0004936,"INCLINATION":97.0529,"RA_OF_ASC_NODE":159.345,"ARG_OF_PERICENTER":110.8707,"MEAN_ANOMALY":249.3066,"EPHEMERIS_TYPE":0,"CLASSIFICATION_TYPE":"U","NORAD_CAT_ID":41772,"ELEMENT_SET_NO":999,"REV_AT_EPOCH":53580,"BSTAR":0.00028585,"MEAN_MOTION_DOT":9.248e-5,"MEAN_MOTION_DDOT":0},{"OBJECT_NAME":"SKYSAT-C2","OBJECT_ID":"2016-058D","EPOCH":"2026-04-26T12:30:42.233760","MEAN_MOTION":15.40891823,"ECCENTRICITY":0.0002108,"INCLINATION":97.0218,"RA_OF_ASC_NODE":140.596,"ARG_OF_PERICENTER":196.7809,"MEAN_ANOMALY":163.3369,"EPHEMERIS_TYPE":0,"CLASSIFICATION_TYPE":"U","NORAD_CAT_ID":41773,"ELEMENT_SET_NO":999,"REV_AT_EPOCH":53709,"BSTAR":0.00033299,"MEAN_MOTION_DOT":0.0001361,"MEAN_MOTION_DDOT":0},{"OBJECT_NAME":"SKYSAT-C3","OBJECT_ID":"2016-058E","EPOCH":"2026-04-26T08:24:04.516128","MEAN_MOTION":15.50378239,"ECCENTRICITY":0.0002726,"INCLINATION":96.9097,"RA_OF_ASC_NODE":149.2502,"ARG_OF_PERICENTER":103.3044,"MEAN_ANOMALY":256.8513,"EPHEMERIS_TYPE":0,"CLASSIFICATION_TYPE":"U","NORAD_CAT_ID":41774,"ELEMENT_SET_NO":999,"REV_AT_EPOCH":53807,"BSTAR":0.00043436,"MEAN_MOTION_DOT":0.00024624,"MEAN_MOTION_DDOT":0},{"OBJECT_NAME":"SKYSAT-C11","OBJECT_ID":"2017-068A","EPOCH":"2026-04-26T08:52:19.265088","MEAN_MOTION":15.55203934,"ECCENTRICITY":0.0001482,"INCLINATION":97.4284,"RA_OF_ASC_NODE":263.0743,"ARG_OF_PERICENTER":139.5781,"MEAN_ANOMALY":220.5583,"EPHEMERIS_TYPE":0,"CLASSIFICATION_TYPE":"U","NORAD_CAT_ID":42987,"ELEMENT_SET_NO":999,"REV_AT_EPOCH":47518,"BSTAR":0.00049813,"MEAN_MOTION_DOT":0.00033634,"MEAN_MOTION_DDOT":0},{"OBJECT_NAME":"SKYSAT-C10","OBJECT_ID":"2017-068B","EPOCH":"2026-04-26T07:24:52.873056","MEAN_MOTION":15.33712093,"ECCENTRICITY":0.0001621,"INCLINATION":97.4423,"RA_OF_ASC_NODE":252.7111,"ARG_OF_PERICENTER":110.5109,"MEAN_ANOMALY":249.6307,"EPHEMERIS_TYPE":0,"CLASSIFICATION_TYPE":"U","NORAD_CAT_ID":42988,"ELEMENT_SET_NO":999,"REV_AT_EPOCH":47440,"BSTAR":0.00036861,"MEAN_MOTION_DOT":0.00011942,"MEAN_MOTION_DDOT":0},{"OBJECT_NAME":"SKYSAT-C9","OBJECT_ID":"2017-068C","EPOCH":"2026-04-26T08:27:37.506816","MEAN_MOTION":15.40274257,"ECCENTRICITY":0.0007583,"INCLINATION":97.4346,"RA_OF_ASC_NODE":253.2095,"ARG_OF_PERICENTER":330.1182,"MEAN_ANOMALY":29.963,"EPHEMERIS_TYPE":0,"CLASSIFICATION_TYPE":"U","NORAD_CAT_ID":42989,"ELEMENT_SET_NO":999,"REV_AT_EPOCH":47477,"BSTAR":0.00038704,"MEAN_MOTION_DOT":0.00015523,"MEAN_MOTION_DDOT":0},{"OBJECT_NAME":"SKYSAT-C8","OBJECT_ID":"2017-068D","EPOCH":"2026-04-26T08:34:01.339680","MEAN_MOTION":15.35924349,"ECCENTRICITY":0.0001186,"INCLINATION":97.4441,"RA_OF_ASC_NODE":252.3667,"ARG_OF_PERICENTER":111.6468,"MEAN_ANOMALY":248.4902,"EPHEMERIS_TYPE":0,"CLASSIFICATION_TYPE":"U","NORAD_CAT_ID":42990,"ELEMENT_SET_NO":999,"REV_AT_EPOCH":47435,"BSTAR":0.00037508,"MEAN_MOTION_DOT":0.00013041,"MEAN_MOTION_DDOT":0},{"OBJECT_NAME":"SKYSAT-C7","OBJECT_ID":"2017-068E","EPOCH":"2026-04-26T08:22:00.189120","MEAN_MOTION":15.35865679,"ECCENTRICITY":0.000468,"INCLINATION":97.4452,"RA_OF_ASC_NODE":253.3445,"ARG_OF_PERICENTER":295.8372,"MEAN_ANOMALY":64.2389,"EPHEMERIS_TYPE":0,"CLASSIFICATION_TYPE":"U","NORAD_CAT_ID":42991,"ELEMENT_SET_NO":999,"REV_AT_EPOCH":47441,"BSTAR":0.00036786,"MEAN_MOTION_DOT":0.00012768,"MEAN_MOTION_DDOT":0},{"OBJECT_NAME":"SKYSAT-C6","OBJECT_ID":"2017-068F","EPOCH":"2026-04-26T08:24:56.440800","MEAN_MOTION":15.33529283,"ECCENTRICITY":0.0001805,"INCLINATION":97.4486,"RA_OF_ASC_NODE":253.487,"ARG_OF_PERICENTER":2.3936,"MEAN_ANOMALY":357.7315,"EPHEMERIS_TYPE":0,"CLASSIFICATION_TYPE":"U","NORAD_CAT_ID":42992,"ELEMENT_SET_NO":999,"REV_AT_EPOCH":47437,"BSTAR":0.00036304,"MEAN_MOTION_DOT":0.00011692,"MEAN_MOTION_DDOT":0},{"OBJECT_NAME":"SKYSAT-C12","OBJECT_ID":"2018-099AR","EPOCH":"2026-04-26T07:37:11.273376","MEAN_MOTION":15.47238311,"ECCENTRICITY":0.000354,"INCLINATION":96.9313,"RA_OF_ASC_NODE":141.6945,"ARG_OF_PERICENTER":16.6336,"MEAN_ANOMALY":343.5031,"EPHEMERIS_TYPE":0,"CLASSIFICATION_TYPE":"U","NORAD_CAT_ID":43797,"ELEMENT_SET_NO":999,"REV_AT_EPOCH":41383,"BSTAR":0.00038258,"MEAN_MOTION_DOT":0.00019414,"MEAN_MOTION_DDOT":0},{"OBJECT_NAME":"SKYSAT-C13","OBJECT_ID":"2018-099AW","EPOCH":"2026-04-26T08:42:04.157568","MEAN_MOTION":15.87529525,"ECCENTRICITY":0.0003046,"INCLINATION":96.9283,"RA_OF_ASC_NODE":164.4245,"ARG_OF_PERICENTER":94.2854,"MEAN_ANOMALY":265.8767,"EPHEMERIS_TYPE":0,"CLASSIFICATION_TYPE":"U","NORAD_CAT_ID":43802,"ELEMENT_SET_NO":999,"REV_AT_EPOCH":41470,"BSTAR":0.00066513,"MEAN_MOTION_DOT":0.00178386,"MEAN_MOTION_DDOT":0},{"OBJECT_NAME":"FLOCK 4Q-16","OBJECT_ID":"2023-174R","EPOCH":"2026-04-26T12:32:50.029728","MEAN_MOTION":15.47036567,"ECCENTRICITY":0.0005235,"INCLINATION":97.3827,"RA_OF_ASC_NODE":203.527,"ARG_OF_PERICENTER":0.515,"MEAN_ANOMALY":359.6105,"EPHEMERIS_TYPE":0,"CLASSIFICATION_TYPE":"U","NORAD_CAT_ID":58271,"ELEMENT_SET_NO":999,"REV_AT_EPOCH":13758,"BSTAR":0.00054844,"MEAN_MOTION_DOT":0.00027702,"MEAN_MOTION_DDOT":0},{"OBJECT_NAME":"FLOCK 4Q-11","OBJECT_ID":"2023-174T","EPOCH":"2026-04-26T12:24:39.498048","MEAN_MOTION":15.4748759,"ECCENTRICITY":0.0004866,"INCLINATION":97.3865,"RA_OF_ASC_NODE":204.06,"ARG_OF_PERICENTER":358.2461,"MEAN_ANOMALY":1.8771,"EPHEMERIS_TYPE":0,"CLASSIFICATION_TYPE":"U","NORAD_CAT_ID":58273,"ELEMENT_SET_NO":999,"REV_AT_EPOCH":13759,"BSTAR":0.00052474,"MEAN_MOTION_DOT":0.00026913,"MEAN_MOTION_DDOT":0}]
